{
    "links": {
        "self": "http://www.neowsapp.com/rest/v1/neo/54051085?api_key=iIulBulltgU6a56xZRHN4H3l9WmuAYTsLGpBGhQ2"
    },
    "id": "54051085",
    "neo_reference_id": "54051085",
    "name": "(2020 PZ3)",
    "designation": "2020 PZ3",
    "nasa_jpl_url": "http://ssd.jpl.nasa.gov/sbdb.cgi?sstr=54051085",
    "absolute_magnitude_h": 25.002,
    "estimated_diameter": {
        "kilometers": {
            "estimated_diameter_min": 0.0265555302,
            "estimated_diameter_max": 0.0593799707
        },
        "meters": {
            "estimated_diameter_min": 26.5555301858,
            "estimated_diameter_max": 59.379970674
        },
        "miles": {
            "estimated_diameter_min": 0.0165008363,
            "estimated_diameter_max": 0.0368969918
        },
        "feet": {
            "estimated_diameter_min": 87.1244456547,
            "estimated_diameter_max": 194.816182986
        }
    },
    "is_potentially_hazardous_asteroid": false,
    "close_approach_data": [
        {
            "close_approach_date": "2020-08-19",
            "close_approach_date_full": "2020-Aug-19 07:44",
            "epoch_date_close_approach": 1597823040000,
            "relative_velocity": {
                "kilometers_per_second": "4.7227114169",
                "kilometers_per_hour": "17001.7611007385",
                "miles_per_hour": "10564.2331684005"
            },
            "miss_distance": {
                "astronomical": "0.139534589",
                "lunar": "54.278955121",
                "kilometers": "20874077.30572543",
                "miles": "12970550.185373734"
            },
            "orbiting_body": "Earth"
        }
    ],
    "orbital_data": {
        "orbit_id": "1",
        "orbit_determination_date": "2020-08-16 10:12:05",
        "first_observation_date": "2020-08-13",
        "last_observation_date": "2020-08-16",
        "data_arc_in_days": 3,
        "observations_used": 9,
        "orbit_uncertainty": "8",
        "minimum_orbit_intersection": ".130032",
        "jupiter_tisserand_invariant": "5.312",
        "epoch_osculation": "2459075.5",
        "eccentricity": ".1144476301891397",
        "semi_major_axis": "1.189657610403485",
        "inclination": "8.895718325846067",
        "ascending_node_longitude": "129.1360840673492",
        "orbital_period": "473.9487777801164",
        "perihelion_distance": "1.053504116156331",
        "perihelion_argument": "270.253463667328",
        "aphelion_distance": "1.325811104650638",
        "perihelion_time": "2459162.761382999800",
        "mean_anomaly": "293.7183692569786",
        "mean_motion": ".7595757534942273",
        "equinox": "J2000",
        "orbit_class": {
            "orbit_class_type": "AMO",
            "orbit_class_description": "Near-Earth asteroid orbits similar to that of 1221 Amor",
            "orbit_class_range": "1.017 AU < q (perihelion) < 1.3 AU"
        }
    },
    "is_sentry_object": false
}